GLOBALSTAR M057 [-]     
1 25943U 99058A   24086.65889295 -.00000036  00000+0  51990-3 0  9992
2 25943  51.9973 178.2375 0002957 161.6007 198.4949 12.24782453112091
GLOBALSTAR M059 [-]     
1 25944U 99058B   24086.93860419 -.00000121  00000+0 -43112-3 0  9994
2 25944  52.0048 337.1036 0000858 102.0473 271.5556 11.99961897520352
GLOBALSTAR M031 [-]     
1 25946U 99058D   24086.75339661 -.00000105  00000+0 -14826-3 0  9998
2 25946  51.9948 270.1579 0001401  26.6829 346.5970 12.16004499110118
GLOBALSTAR M039 [-]     
1 25961U 99062A   24086.55251953 -.00000058  00000+0  25274-3 0  9990
2 25961  51.9838 192.0775 0003267  84.4193 275.7046 12.62285323123682
GLOBALSTAR M034 [-]     
1 25962U 99062B   24086.75648877 -.00000047  00000+0  54062-3 0  9993
2 25962  51.9856  94.4237 0013959 276.0117 254.8725 11.79426040 85594
